NORAD_CAT_ID,OBJECT_NAME,OBJECT_TYPE,EPOCH,MEAN_MOTION,ECCENTRICITY,INCLINATION,RA_OF_ASC_NODE,ARG_OF_PERICENTER,MEAN_ANOMALY,BSTAR,MEAN_MOTION_DOT,MEAN_MOTION_DDOT,TLE_LINE0,TLE_LINE1,TLE_LINE2,SEMIMAJOR_AXIS,PERIOD,APOGEE,PERIGEE,DECAYED
51802.0,STARLINK-3557,PAYLOAD,2023-08-14 17:53:01,15.0883525,0.000128,53.2168,239.7074,84.9363,275.1775,2.3011e-05,7.8e-07,0.0,0 STARLINK-3557,1 51802U 22017AL  23226.74515530  .00000078  00000-0  23011-4 0  9999,2 51802  53.2168 239.7074 0001280  84.9363 275.1775 15.08835250 82325,6917.895,95.438,540.645,538.874,0.0
51802.0,STARLINK-3557,PAYLOAD,2023-08-15 17:43:47,15.08856071,0.000133,53.2164,235.2467,86.3109,273.8035,-0.00012655,-2.302e-05,0.0,0 STARLINK-3557,1 51802U 22017AL  23227.73874772 -.00002302  00000-0 -12655-3 0  9990,2 51802  53.2164 235.2467 0001330  86.3109 273.8035 15.08856071 82472,6917.831,95.437,540.616,538.776,0.0
51802.0,STARLINK-3557,PAYLOAD,2023-08-16 00:05:20,15.08846013,0.0001293,53.216,234.0569,84.862,275.252,5.3237e-06,-2.03e-06,0.0,0 STARLINK-3557,1 51802U 22017AL  23228.00370958 -.00000203  00000-0  53237-5 0  9998,2 51802  53.2160 234.0569 0001293  84.8620 275.2520 15.08846013 82512,6917.862,95.437,540.621,538.833,0.0
51802.0,STARLINK-3557,PAYLOAD,2023-08-16 17:34:35,15.08841669,0.0001339,53.2163,230.7865,87.0749,273.0396,6.2592e-05,7.08e-06,0.0,0 STARLINK-3557,1 51802U 22017AL  23228.73235294  .00000708  00000-0  62592-4 0  9993,2 51802  53.2163 230.7865 0001339  87.0749 273.0396 15.08841669 82626,6917.875,95.437,540.667,538.814,0.0
51802.0,STARLINK-3557,PAYLOAD,2023-08-18 09:19:13,15.0884614,0.0001414,53.2161,223.3517,93.3379,266.7775,6.4592e-05,7.4e-06,0.0,0 STARLINK-3557,1 51802U 22017AL  23230.38834859  .00000740  00000-0  64592-4 0  9997,2 51802  53.2161 223.3517 0001414  93.3379 266.7775 15.08846140 82875,6917.862,95.437,540.705,538.748,0.0
51802.0,STARLINK-3557,PAYLOAD,2023-08-19 05:59:14,15.08839134,0.0001484,53.2166,219.4845,99.861,260.255,5.9457e-05,6.58e-06,0.0,0 STARLINK-3557,1 51802U 22017AL  23231.24947298  .00000658  00000-0  59457-4 0  9997,2 51802  53.2166 219.4845 0001484  99.8610 260.2550 15.08839134 83007,6917.883,95.438,540.775,538.721,0.0
51802.0,STARLINK-3557,PAYLOAD,2023-08-20 04:14:38,15.08836215,0.0001519,53.2165,215.3218,100.6816,259.4348,-2.2818e-05,-6.51e-06,0.0,0 STARLINK-3557,1 51802U 22017AL  23232.17683896 -.00000651  00000-0 -22818-4 0  9997,2 51802  53.2165 215.3218 0001519 100.6816 259.4348 15.08836215 83140,6917.892,95.438,540.808,538.706,0.0
51802.0,STARLINK-3557,PAYLOAD,2023-08-21 08:51:34,15.08842505,0.0001507,53.217,209.9703,104.9579,255.158,5.6944e-05,6.18e-06,0.0,0 STARLINK-3557,1 51802U 22017AL  23233.36915504  .00000618  00000-0  56944-4 0  9991,2 51802  53.2170 209.9703 0001507 104.9579 255.1580 15.08842505 83324,6917.873,95.437,540.78,538.695,0.0
51802.0,STARLINK-3557,PAYLOAD,2023-08-22 02:20:50,15.08832394,0.000152,53.2175,206.6989,103.1019,257.0142,3.9012e-05,3.33e-06,0.0,0 STARLINK-3557,1 51802U 22017AL  23234.09780423  .00000333  00000-0  39012-4 0  9993,2 51802  53.2175 206.6989 0001520 103.1019 257.0142 15.08832394 83436,6917.904,95.438,540.82,538.717,0.0
51802.0,STARLINK-3557,PAYLOAD,2023-08-23 10:08:32,15.08847204,0.0001454,53.2174,200.7527,84.9453,275.1706,7.4711e-05,9.01e-06,0.0,0 STARLINK-3557,1 51802U 22017AL  23235.42259695  .00000901  00000-0  74711-4 0  9999,2 51802  53.2174 200.7527 0001454  84.9453 275.1706 15.08847204 83637,6917.858,95.437,540.729,538.718,0.0
51802.0,STARLINK-3557,PAYLOAD,2023-08-24 06:48:33,15.08840557,0.0001518,53.2177,196.8859,84.3759,275.7406,5.0461e-05,5.15e-06,0.0,0 STARLINK-3557,1 51802U 22017AL  23236.28372301  .00000515  00000-0  50461-4 0  9991,2 51802  53.2177 196.8859 0001518  84.3759 275.7406 15.08840557 83768,6917.879,95.438,540.794,538.694,0.0
51802.0,STARLINK-3557,PAYLOAD,2023-08-25 01:53:10,15.08847045,0.0001359,53.2166,193.3193,89.4028,270.7119,3.7615e-05,3.11e-06,0.0,0 STARLINK-3557,1 51802U 22017AL  23237.07859835  .00000311  00000-0  37615-4 0  9991,2 51802  53.2166 193.3193 0001359  89.4028 270.7119 15.08847045 83885,6917.859,95.437,540.664,538.784,0.0
51802.0,STARLINK-3557,PAYLOAD,2023-08-25 06:39:19,15.08852851,0.0001359,53.2165,192.4255,91.4926,268.6222,8.4456e-05,1.057e-05,0.0,0 STARLINK-3557,1 51802U 22017AL  23237.27731211  .00001057  00000-0  84456-4 0  9993,2 51802  53.2165 192.4255 0001359  91.4926 268.6222 15.08852851 83919,6917.841,95.437,540.646,538.766,0.0
51802.0,STARLINK-3557,PAYLOAD,2023-08-26 00:08:34,15.08840422,0.0001795,53.2164,189.1522,126.4347,233.681,9.2656e-06,-1.41e-06,0.0,0 STARLINK-3557,1 51802U 22017AL  23238.00596006 -.00000141  00000-0  92656-5 0  9992,2 51802  53.2164 189.1522 0001795 126.4347 233.6810 15.08840422 84027,6917.879,95.438,540.986,538.502,0.0
51802.0,STARLINK-3557,PAYLOAD,2023-08-26 06:30:07,15.08843508,0.0001728,53.2191,187.9596,119.9515,240.1649,-2.9943e-05,-7.65e-06,0.0,0 STARLINK-3557,1 51802U 22017AL  23238.27091929 -.00000765  00000-0 -29943-4 0  9996,2 51802  53.2191 187.9596 0001728 119.9515 240.1649 15.08843508 84069,6917.87,95.437,540.93,538.539,0.0
51802.0,STARLINK-3557,PAYLOAD,2023-08-27 01:34:45,15.08844454,0.0001442,53.2176,184.395,112.0943,248.0202,-5.3454e-05,-1.139e-05,0.0,0 STARLINK-3557,1 51802U 22017AL  23239.06580080 -.00001139  00000-0 -53454-4 0  9995,2 51802  53.2176 184.3950 0001442 112.0943 248.0202 15.08844454 84185,6917.867,95.437,540.729,538.734,0.0
51802.0,STARLINK-3557,PAYLOAD,2023-08-27 06:20:54,15.08845754,0.0001454,53.2175,183.5031,112.0158,248.0989,-4.9036e-05,-1.068e-05,0.0,0 STARLINK-3557,1 51802U 22017AL  23239.26451940 -.00001068  00000-0 -49036-4 0  9991,2 51802  53.2175 183.5031 0001454 112.0158 248.0989 15.08845754 84216,6917.863,95.437,540.734,538.722,0.0
51802.0,STARLINK-3557,PAYLOAD,2023-08-28 03:00:55,15.0883662,0.0001498,53.2174,179.6376,104.0486,256.0673,4.0696e-05,3.6e-06,0.0,0 STARLINK-3557,1 51802U 22017AL  23240.12564443  .00000360  00000-0  40696-4 0  9996,2 51802  53.2174 179.6376 0001498 104.0486 256.0673 15.08836620 84341,6917.891,95.438,540.792,538.719,0.0
51802.0,STARLINK-3557,PAYLOAD,2023-08-28 18:54:47,15.08828951,0.0001544,53.2172,176.6654,87.4943,272.6226,-1.1384e-06,-3.06e-06,0.0,0 STARLINK-3557,1 51802U 22017AL  23240.78805393 -.00000306  00000-0 -11384-5 0  9995,2 51802  53.2172 176.6654 0001544  87.4943 272.6226 15.08828951 84446,6917.914,95.438,540.847,538.711,0.0
51802.0,STARLINK-3557,PAYLOAD,2023-08-29 01:16:19,15.08837557,0.0001342,53.217,175.4781,101.5699,258.5444,7.4781e-06,-1.69e-06,0.0,0 STARLINK-3557,1 51802U 22017AL  23241.05300881 -.00000169  00000-0  74781-5 0  9994,2 51802  53.2170 175.4781 0001342 101.5699 258.5444 15.08837557 84485,6917.888,95.438,540.681,538.824,0.0
51802.0,STARLINK-3557,PAYLOAD,2023-08-29 12:24:01,15.08837189,0.0001402,53.2168,173.3962,92.1087,268.0066,3.4756e-05,2.65e-06,0.0,0 STARLINK-3557,1 51802U 22017AL  23241.51668912  .00000265  00000-0  34756-4 0  9990,2 51802  53.2168 173.3962 0001402  92.1087 268.0066 15.08837189 84558,6917.889,95.438,540.724,538.784,0.0
51802.0,STARLINK-3557,PAYLOAD,2023-08-30 04:17:53,15.0883842,0.0001463,53.2175,170.4231,93.8581,266.2578,1.6365e-05,-2.8e-07,0.0,0 STARLINK-3557,1 51802U 22017AL  23242.17909235 -.00000028  00000-0  16365-4 0  9993,2 51802  53.2175 170.4231 0001463  93.8581 266.2578 15.08838420 84655,6917.885,95.438,540.762,538.738,0.0
51802.0,STARLINK-3557,PAYLOAD,2023-08-30 12:14:49,15.08837832,0.0001492,53.2172,168.9363,90.1005,270.0158,3.3627e-05,2.47e-06,0.0,0 STARLINK-3557,1 51802U 22017AL  23242.51029301  .00000247  00000-0  33627-4 0  9990,2 51802  53.2172 168.9363 0001492  90.1005 270.0158 15.08837832 84702,6917.887,95.438,540.784,538.72,0.0
51802.0,STARLINK-3557,PAYLOAD,2023-08-30 23:22:31,15.08837551,0.0001553,53.2174,166.8547,93.3495,266.7675,6.5146e-05,7.49e-06,0.0,0 STARLINK-3557,1 51802U 22017AL  23242.97397378  .00000749  00000-0  65146-4 0  9990,2 51802  53.2174 166.8547 0001553  93.3495 266.7675 15.08837551 84772,6917.888,95.438,540.827,538.679,0.0
51802.0,STARLINK-3557,PAYLOAD,2023-09-01 00:48:41,15.08838499,9.54e-05,53.2167,162.0984,76.3553,283.7545,0.00011873,1.602e-05,0.0,0 STARLINK-3557,1 51802U 22017AL  23244.03381192  .00001602  00000-0  11873-3 0  9992,2 51802  53.2167 162.0984 0000954  76.3553 283.7545 15.08838499 84932,6917.885,95.438,540.41,539.09,0.0
51802.0,STARLINK-3557,PAYLOAD,2023-09-01 11:56:22,15.08854472,0.0001318,53.2171,160.0141,105.1864,254.9274,-0.00011109,-2.056e-05,0.0,0 STARLINK-3557,1 51802U 22017AL  23244.49748635 -.00002056  00000-0 -11109-3 0  9999,2 51802  53.2171 160.0141 0001318 105.1864 254.9274 15.08854472 85008,6917.836,95.437,540.613,538.789,0.0
51802.0,STARLINK-3557,PAYLOAD,2023-09-01 18:17:55,15.08839602,6.71e-05,53.2178,158.8261,79.6989,280.4079,9.3308e-05,1.198e-05,0.0,0 STARLINK-3557,1 51802U 22017AL  23244.76244978  .00001198  00000-0  93308-4 0  9996,2 51802  53.2178 158.8261 0000671  79.6989 280.4079 15.08839602 85046,6917.882,95.438,540.211,539.282,0.0
51802.0,STARLINK-3557,PAYLOAD,2023-09-02 00:39:28,15.08841469,0.0001091,53.216,157.6372,83.0043,277.1073,7.0927e-05,8.41e-06,0.0,0 STARLINK-3557,1 51802U 22017AL  23245.02741073  .00000841  00000-0  70927-4 0  9990,2 51802  53.2160 157.6372 0001091  83.0043 277.1073 15.08841469 85089,6917.876,95.437,540.496,538.986,0.0
51802.0,STARLINK-3557,PAYLOAD,2023-09-02 18:08:42,15.08841023,0.0001144,53.2154,154.3646,85.7522,274.3601,1.7103e-05,-1.6e-07,0.0,0 STARLINK-3557,1 51802U 22017AL  23245.75605157 -.00000016  00000-0  17103-4 0  9994,2 51802  53.2154 154.3646 0001144  85.7522 274.3601 15.08841023 85194,6917.877,95.437,540.534,538.951,0.0
51802.0,STARLINK-3557,PAYLOAD,2023-09-03 03:41:01,15.0884693,0.00013,53.2161,152.5793,92.3172,267.7969,8.8534e-05,1.122e-05,0.0,0 STARLINK-3557,1 51802U 22017AL  23246.15348527  .00001122  00000-0  88534-4 0  9998,2 51802  53.2161 152.5793 0001300  92.3172 267.7969 15.08846930 85256,6917.859,95.437,540.624,538.825,0.0
